start=new Date('2023-06-21T00:00:00.000Z').valueOf();
sats=[{"TLE_LINE1":"1 52666U 22053L   23171.79766922  .00002193  00000-0  15578-3 0  9993","RA_OF_ASC_NODE":"291.3982","FILE":"3938544","TLE_LINE2":"2 52666  53.2171 291.3982 0001140  71.7509 288.3607 15.08849589 61159","PERIOD":"95.437","COUNTRY_CODE":"US","MEAN_MOTION_DDOT":"0.0000000000000","MEAN_ANOMALY":"288.3607","EPOCH":"2023-06-20T19:08:38.620608","ARG_OF_PERICENTER":"71.7509","LAUNCH_DATE":"2022-05-18","MEAN_MOTION":"15.08849589","MEAN_MOTION_DOT":"0.00002193","TIME_SYSTEM":"UTC","OBJECT_TYPE":"PAYLOAD","BSTAR":"0.00015578000000","RCS_SIZE":"LARGE","MEAN_ELEMENT_THEORY":"SGP4","OBJECT_NAME":"STARLINK-4079","REF_FRAME":"TEME","REV_AT_EPOCH":"6115","EPHEMERIS_TYPE":"0","ELEMENT_SET_NO":"999","CENTER_NAME":"EARTH","OBJECT_ID":"2022-053L","GP_ID":"234393774","SEMIMAJOR_AXIS":"6917.851","NORAD_CAT_ID":"52666","APOAPSIS":"540.505","PERIAPSIS":"538.927","CLASSIFICATION_TYPE":"U","DECAY_DATE":null,"ECCENTRICITY":"0.00011400","SITE":"AFETR","INCLINATION":"53.2171"},{"MEAN_MOTION":"15.08842109","MEAN_MOTION_DOT":"0.00000160","TIME_SYSTEM":"UTC","OBJECT_TYPE":"PAYLOAD","BSTAR":"0.00002810200000","MEAN_ANOMALY":"277.9649","ARG_OF_PERICENTER":"82.1465","EPOCH":"2023-06-20T17:15:59.058720","LAUNCH_DATE":"2022-05-18","MEAN_MOTION_DDOT":"0.0000000000000","RA_OF_ASC_NODE":"291.7389","TLE_LINE1":"1 52667U 22053M   23171.71943355  .00000160  00000-0  28102-4 0  9993","FILE":"3938544","TLE_LINE2":"2 52667  53.2170 291.7389 0001074  82.1465 277.9649 15.08842109 61147","PERIOD":"95.437","COUNTRY_CODE":"US","SITE":"AFETR","INCLINATION":"53.2170","CLASSIFICATION_TYPE":"U","DECAY_DATE":null,"ECCENTRICITY":"0.00010740","EPHEMERIS_TYPE":"0","ELEMENT_SET_NO":"999","CENTER_NAME":"EARTH","OBJECT_ID":"2022-053M","NORAD_CAT_ID":"52667","GP_ID":"234395024","SEMIMAJOR_AXIS":"6917.874","APOAPSIS":"540.482","PERIAPSIS":"538.996","RCS_SIZE":"LARGE","MEAN_ELEMENT_THEORY":"SGP4","REF_FRAME":"TEME","OBJECT_NAME":"STARLINK-4076","REV_AT_EPOCH":"6114"},{"MEAN_MOTION":"15.08846546","TIME_SYSTEM":"UTC","MEAN_MOTION_DOT":"0.00000464","BSTAR":"0.00004723600000","OBJECT_TYPE":"PAYLOAD","MEAN_ANOMALY":"269.2751","EPOCH":"2023-06-20T17:26:34.869408","ARG_OF_PERICENTER":"90.8334","LAUNCH_DATE":"2022-05-18","MEAN_MOTION_DDOT":"0.0000000000000","FILE":"3938544","RA_OF_ASC_NODE":"291.7062","TLE_LINE1":"1 52668U 22053N   23171.72679247  .00000464  00000-0  47236-4 0  9997","TLE_LINE2":"2 52668  53.2175 291.7062 0000813  90.8334 269.2751 15.08846546 61149","COUNTRY_CODE":"US","PERIOD":"95.437","SITE":"AFETR","INCLINATION":"53.2175","DECAY_DATE":null,"CLASSIFICATION_TYPE":"U","ECCENTRICITY":"0.00008130","EPHEMERIS_TYPE":"0","ELEMENT_SET_NO":"999","OBJECT_ID":"2022-053N","CENTER_NAME":"EARTH","GP_ID":"234395272","SEMIMAJOR_AXIS":"6917.860","NORAD_CAT_ID":"52668","PERIAPSIS":"539.163","APOAPSIS":"540.288","RCS_SIZE":"LARGE","MEAN_ELEMENT_THEORY":"SGP4","REF_FRAME":"TEME","OBJECT_NAME":"STARLINK-4067","REV_AT_EPOCH":"6114"},{"GP_ID":"234393524","NORAD_CAT_ID":"52669","SEMIMAJOR_AXIS":"6917.845","APOAPSIS":"539.980","PERIAPSIS":"539.439","EPHEMERIS_TYPE":"0","ELEMENT_SET_NO":"999","CENTER_NAME":"EARTH","OBJECT_ID":"2022-053P","OBJECT_NAME":"STARLINK-3972","REF_FRAME":"TEME","REV_AT_EPOCH":"6114","RCS_SIZE":"LARGE","MEAN_ELEMENT_THEORY":"SGP4","SITE":"AFETR","INCLINATION":"53.2186","ECCENTRICITY":"0.00003910","CLASSIFICATION_TYPE":"U","DECAY_DATE":null,"MEAN_MOTION_DDOT":"0.0000000000000","TLE_LINE2":"2 52669  53.2186 291.4895 0000391  97.0767 263.0270 15.08851705 61144","PERIOD":"95.437","COUNTRY_CODE":"US","TLE_LINE1":"1 52669U 22053P   23171.77462715  .00001464  00000-0  11000-3 0  9993","RA_OF_ASC_NODE":"291.4895","FILE":"3938544","MEAN_MOTION_DOT":"0.00001464","TIME_SYSTEM":"UTC","BSTAR":"0.00011000000000","OBJECT_TYPE":"PAYLOAD","MEAN_MOTION":"15.08851705","ARG_OF_PERICENTER":"97.0767","EPOCH":"2023-06-20T18:35:27.785760","LAUNCH_DATE":"2022-05-18","MEAN_ANOMALY":"263.0270"},{"MEAN_MOTION":"15.08846548","MEAN_MOTION_DOT":"0.00001188","TIME_SYSTEM":"UTC","BSTAR":"0.00009269600000","OBJECT_TYPE":"PAYLOAD","MEAN_ANOMALY":"285.4730","ARG_OF_PERICENTER":"74.6382","EPOCH":"2023-06-20T17:31:53.497056","LAUNCH_DATE":"2022-05-18","MEAN_MOTION_DDOT":"0.0000000000000","TLE_LINE1":"1 52670U 22053Q   23171.73048029  .00001188  00000-0  92696-4 0  9993","RA_OF_ASC_NODE":"291.7554","FILE":"3938544","TLE_LINE2":"2 52670  53.2164 291.7554 0001093  74.6382 285.4730 15.08846548 61149","PERIOD":"95.437","COUNTRY_CODE":"US","SITE":"AFETR","INCLINATION":"53.2164","CLASSIFICATION_TYPE":"U","DECAY_DATE":null,"ECCENTRICITY":"0.00010930","ELEMENT_SET_NO":"999","EPHEMERIS_TYPE":"0","CENTER_NAME":"EARTH","OBJECT_ID":"2022-053Q","SEMIMAJOR_AXIS":"6917.860","GP_ID":"234394274","NORAD_CAT_ID":"52670","APOAPSIS":"540.481","PERIAPSIS":"538.969","RCS_SIZE":"LARGE","MEAN_ELEMENT_THEORY":"SGP4","REF_FRAME":"TEME","OBJECT_NAME":"STARLINK-4075","REV_AT_EPOCH":"6114"},{"COUNTRY_CODE":"US","PERIOD":"95.437","TLE_LINE2":"2 52671  53.2172 292.1017 0000834 111.3168 248.7913 15.08842949 61125","FILE":"3938544","TLE_LINE1":"1 52671U 22053R   23171.63847515 -.00000307  00000-0 -11850-5 0  9998","RA_OF_ASC_NODE":"292.1017","MEAN_MOTION_DDOT":"0.0000000000000","LAUNCH_DATE":"2022-05-18","ARG_OF_PERICENTER":"111.3168","EPOCH":"2023-06-20T15:19:24.252960","MEAN_ANOMALY":"248.7913","BSTAR":"-0.00000118500000","OBJECT_TYPE":"PAYLOAD","MEAN_MOTION_DOT":"-0.00000307","TIME_SYSTEM":"UTC","MEAN_MOTION":"15.08842949","REV_AT_EPOCH":"6112","OBJECT_NAME":"STARLINK-4071","REF_FRAME":"TEME","MEAN_ELEMENT_THEORY":"SGP4","RCS_SIZE":"LARGE","PERIAPSIS":"539.159","APOAPSIS":"540.313","GP_ID":"234394525","SEMIMAJOR_AXIS":"6917.871","NORAD_CAT_ID":"52671","OBJECT_ID":"2022-053R","CENTER_NAME":"EARTH","EPHEMERIS_TYPE":"0","ELEMENT_SET_NO":"999","ECCENTRICITY":"0.00008340","DECAY_DATE":null,"CLASSIFICATION_TYPE":"U","INCLINATION":"53.2172","SITE":"AFETR"},{"REF_FRAME":"TEME","OBJECT_NAME":"STARLINK-4073","REV_AT_EPOCH":"6113","RCS_SIZE":"LARGE","MEAN_ELEMENT_THEORY":"SGP4","GP_ID":"234394773","SEMIMAJOR_AXIS":"6917.862","NORAD_CAT_ID":"52672","PERIAPSIS":"539.005","APOAPSIS":"540.450","ELEMENT_SET_NO":"999","EPHEMERIS_TYPE":"0","OBJECT_ID":"2022-053S","CENTER_NAME":"EARTH","ECCENTRICITY":"0.00010440","DECAY_DATE":null,"CLASSIFICATION_TYPE":"U","SITE":"AFETR","INCLINATION":"53.2170","TLE_LINE2":"2 52672  53.2170 291.7553 0001044  99.7806 260.3304 15.08845910 61132","COUNTRY_CODE":"US","PERIOD":"95.437","FILE":"3938544","TLE_LINE1":"1 52672U 22053S   23171.71575305  .00000742  00000-0  64659-4 0  9998","RA_OF_ASC_NODE":"291.7553","MEAN_MOTION_DDOT":"0.0000000000000","EPOCH":"2023-06-20T17:10:41.063520","ARG_OF_PERICENTER":"99.7806","LAUNCH_DATE":"2022-05-18","MEAN_ANOMALY":"260.3304","TIME_SYSTEM":"UTC","MEAN_MOTION_DOT":"0.00000742","OBJECT_TYPE":"PAYLOAD","BSTAR":"0.00006465900000","MEAN_MOTION":"15.08845910"},{"ECCENTRICITY":"0.00012280","DECAY_DATE":null,"CLASSIFICATION_TYPE":"U","SITE":"AFETR","INCLINATION":"53.2166","REF_FRAME":"TEME","OBJECT_NAME":"STARLINK-3976","REV_AT_EPOCH":"6112","RCS_SIZE":"LARGE","MEAN_ELEMENT_THEORY":"SGP4","GP_ID":"234394024","NORAD_CAT_ID":"52673","SEMIMAJOR_AXIS":"6917.863","PERIAPSIS":"538.878","APOAPSIS":"540.577","ELEMENT_SET_NO":"999","EPHEMERIS_TYPE":"0","OBJECT_ID":"2022-053T","CENTER_NAME":"EARTH","ARG_OF_PERICENTER":"56.9753","EPOCH":"2023-06-20T15:08:48.057792","LAUNCH_DATE":"2022-05-18","MEAN_ANOMALY":"303.1357","TIME_SYSTEM":"UTC","MEAN_MOTION_DOT":"0.00004759","BSTAR":"0.00031683000000","OBJECT_TYPE":"PAYLOAD","MEAN_MOTION":"15.08845748","TLE_LINE2":"2 52673  53.2166 292.1322 0001228  56.9753 303.1357 15.08845748 61129","COUNTRY_CODE":"US","PERIOD":"95.437","FILE":"3938544","RA_OF_ASC_NODE":"292.1322","TLE_LINE1":"1 52673U 22053T   23171.63111178  .00004759  00000-0  31683-3 0  9996","MEAN_MOTION_DDOT":"0.0000000000000"},{"REV_AT_EPOCH":"6114","REF_FRAME":"TEME","OBJECT_NAME":"STARLINK-3936","MEAN_ELEMENT_THEORY":"SGP4","RCS_SIZE":"LARGE","APOAPSIS":"540.322","PERIAPSIS":"539.125","GP_ID":"234393775","NORAD_CAT_ID":"52674","SEMIMAJOR_AXIS":"6917.858","CENTER_NAME":"EARTH","OBJECT_ID":"2022-053U","EPHEMERIS_TYPE":"0","ELEMENT_SET_NO":"999","ECCENTRICITY":"0.00008650","CLASSIFICATION_TYPE":"U","DECAY_DATE":null,"INCLINATION":"53.2183","SITE":"AFETR","PERIOD":"95.437","COUNTRY_CODE":"US","TLE_LINE2":"2 52674  53.2183 291.7730 0000865  99.2113 260.8977 15.08847162 61144","RA_OF_ASC_NODE":"291.7730","TLE_LINE1":"1 52674U 22053U   23171.71207094  .00001217  00000-0  94521-4 0  9996","FILE":"3938544","MEAN_MOTION_DDOT":"0.0000000000000","LAUNCH_DATE":"2022-05-18","EPOCH":"2023-06-20T17:05:22.929216","ARG_OF_PERICENTER":"99.2113","MEAN_ANOMALY":"260.8977","OBJECT_TYPE":"PAYLOAD","BSTAR":"0.00009452100000","MEAN_MOTION_DOT":"0.00001217","TIME_SYSTEM":"UTC","MEAN_MOTION":"15.08847162"},{"MEAN_MOTION_DDOT":"0.0000000000000","TLE_LINE1":"1 52675U 22053V   23171.69459158  .00002703  00000-0  18785-3 0  9992","RA_OF_ASC_NODE":"281.8522","FILE":"3938544","PERIOD":"95.437","COUNTRY_CODE":"US","TLE_LINE2":"2 52675  53.2166 281.8522 0000879  91.0462 269.0631 15.08843451 61265","MEAN_MOTION":"15.08843451","OBJECT_TYPE":"PAYLOAD","BSTAR":"0.00018785000000","MEAN_MOTION_DOT":"0.00002703","TIME_SYSTEM":"UTC","MEAN_ANOMALY":"269.0631","LAUNCH_DATE":"2022-05-18","EPOCH":"2023-06-20T16:40:12.712512","ARG_OF_PERICENTER":"91.0462","CENTER_NAME":"EARTH","OBJECT_ID":"2022-053V","ELEMENT_SET_NO":"999","EPHEMERIS_TYPE":"0","APOAPSIS":"540.343","PERIAPSIS":"539.127","GP_ID":"234395025","NORAD_CAT_ID":"52675","SEMIMAJOR_AXIS":"6917.870","MEAN_ELEMENT_THEORY":"SGP4","RCS_SIZE":"LARGE","REV_AT_EPOCH":"6126","REF_FRAME":"TEME","OBJECT_NAME":"STARLINK-3934","INCLINATION":"53.2166","SITE":"AFETR","CLASSIFICATION_TYPE":"U","DECAY_DATE":null,"ECCENTRICITY":"0.00008790"}];
